ONEWEB-0338             
1 49204U 21083U   23340.41472469  .00000009  00000+0 -10182-4 0  9997
2 49204  87.9193  98.3537 0001419 121.4881 238.6391 13.20770334114876
ONEWEB-0339             
1 49205U 21083V   23341.00611771  .00000131  00000+0  32468-3 0  9990
2 49205  87.8986 143.9593 0001472  89.8036 270.3261 13.13471628111000
ONEWEB-0340             
1 49206U 21083W   23340.56490115 -.00000124  00000+0 -34646-3 0  9992
2 49206  87.9151 159.1959 0001624  80.1323 279.9992 13.18686050108243
ONEWEB-0341             
1 49207U 21083X   23341.02859882 -.00000027  00000+0 -10108-3 0  9994
2 49207  87.9220 159.1149 0002149 104.5519 255.5852 13.18688156109619
ONEWEB-0342             
1 49208U 21083Y   23340.34528230  .00000135  00000+0  29902-3 0  9999
2 49208  87.9185  98.3937 0001429 112.4683 247.6601 13.20772930114830
ONEWEB-0343             
1 49209U 21083Z   23340.56911283  .00000108  00000+0  24065-3 0  9993
2 49209  87.9208 159.2287 0002071 110.8261 249.3093 13.18686371109603
ONEWEB-0344             
1 49210U 21083AA  23340.51569511  .00000294  00000+0  77156-3 0  9998
2 49210  87.8990 144.0654 0001697  86.5860 273.5464 13.13458498109646
ONEWEB-0345             
1 49211U 21083AB  23340.99026228 -.00002834  00000+0 -78023-2 0  9991
2 49211  87.9001 143.9559 0002607  85.2188 274.9239 13.13434780111011
